STARLINK-4350           
1 53045C 22077C   26187.28590278  .00199270  00000+0  13854-1 0  1878
2 53045  97.2864   6.3915 0001833  96.1491 223.0698 15.05506026    15
STARLINK-4331           
1 53046C 22077D   26187.28312500  .00013673  00000+0  94954-3 0  1873
2 53046  97.2865   6.4833 0001098  94.4862  74.6618 15.05641220    11
STARLINK-4352           
1 53047C 22077E   26187.28104167  .00011511  00000+0  79978-3 0  1870
2 53047  97.2870   5.2874 0001041 117.0013 108.2308 15.05625219    18
STARLINK-4355           
1 53048C 22077F   26187.25812500 -.00001383  00000+0 -96092-4 0  1870
2 53048  97.2856   6.3925 0001732 101.2273 142.5363 15.05636390    16
STARLINK-4345           
1 53049C 22077G   26187.28243056  .00016149  00000+0  11216-2 0  1875
2 53049  97.2851   5.2503 0000749 104.0173  68.7385 15.05639073    13
STARLINK-4343           
1 53050C 22077H   26187.22131944 -.00028212  00000+0 -19594-2 0  1876
2 53050  97.2868   6.3026 0001419 100.2134 184.1776 15.05660305    14
STARLINK-4336           
1 53051C 22077J   26187.25743056 -.00000863  00000+0 -59973-4 0  1872
2 53051  97.2850   5.1899 0001714  87.1782 235.1805 15.05636718    12
STARLINK-4341           
1 53052C 22077K   26187.29006944  .00021974  00000+0  15267-2 0  1875
2 53052  97.2858   5.2551 0000801  83.7625 115.3776 15.05622380    17
STARLINK-4337           
1 53053C 22077L   26187.24562500 -.00007990  00000+0 -55477-3 0  1878
2 53053  97.2851   5.1766 0001552  89.7500 183.6068 15.05659617    15
STARLINK-4339           
1 53054C 22077M   26187.24145833 -.00013341  00000+0 -92667-3 0  1874
2 53054  97.2849   6.3950 0001393  99.2946 129.1752 15.05648426    15
STARLINK-4338           
1 53055C 22077N   26187.19840278 -.00041139  00000+0 -28577-2 0  1878
2 53055  97.2868   6.2681 0001288 115.6700  74.5099 15.05660976    12
STARLINK-4314           
1 53056C 22077P   26187.30465278  .00029285  00000+0  20342-2 0  1873
2 53056  97.2857   6.4088 0002081  93.0211  27.7904 15.05625601    13
STARLINK-4252           
1 53057C 22077Q   26187.27756944  .00007042  00000+0  48909-3 0  1870
2 53057  97.2852   6.4611 0001918  84.7224 114.3320 15.05643027    17
STARLINK-4317           
1 53058C 22077R   26187.23729167 -.00014175  00000+0 -98464-3 0  1872
2 53058  97.2850   5.2982 0001094 104.1334  79.0842 15.05646605    19
STARLINK-4320           
1 53059C 22077S   26187.21437500 -.00030824  00000+0 -21406-2 0  1878
2 53059  97.2853   5.1898 0002281 115.2648 138.8347 15.05663045    19
STARLINK-4305           
1 53060C 22077T   26187.22201389 -.00025102  00000+0 -17437-2 0  1877
2 53060  97.2853   5.1520 0001253  94.2394  66.2698 15.05652449    14
STARLINK-4308           
1 53061C 22077U   26187.29006944  .00014690  00000+0  10202-2 0  1876
2 53061  97.2854   5.2687 0001758  90.0734 244.0677 15.05641731    18
STARLINK-4311           
1 53062C 22077V   26187.25256944 -.00003617  00000+0 -25126-3 0  1871
2 53062  97.2850   5.3061 0001784  90.6660 190.3127 15.05640110    18
STARLINK-4307           
1 53063C 22077W   26187.27479167 -.00097752  00000+0 -67840-2 0  1879
2 53063  97.2858   6.3274 0000836 101.6541 352.4618 15.05723802    18
STARLINK-4313           
1 53064C 22077X   26187.30951389  .00032380  00000+0  22497-2 0  1878
2 53064  97.2851   6.4189 0001399 100.7749 121.3823 15.05616036    14
STARLINK-4312           
1 53065C 22077Y   26187.31020833  .00031417  00000+0  21819-2 0  1878
2 53065  97.2856   5.3686 0001230  98.9373 194.2615 15.05631895    13
STARLINK-4309           
1 53066C 22077Z   26187.21229167 -.00028130  00000+0 -19540-2 0  1877
2 53066  97.2861   5.2292 0001806  99.7145 263.1044 15.05654089    19
STARLINK-4325           
1 53068C 22077AB  26187.25951389 -.00002258  00000+0 -15687-3 0  1873
2 53068  97.2850   6.3684 0001251  93.3018 247.9847 15.05641063    18
STARLINK-4323           
1 53069C 22077AC  26187.21854167 -.00027697  00000+0 -19228-2 0  1874
2 53069  97.2871   5.1702 0001374 101.6982 189.9233 15.05674924    15
STARLINK-4342           
1 53070C 22077AD  26187.25256944 -.00008137  00000+0 -56517-3 0  1870
2 53070  97.2861   6.4503 0001668 104.8036  48.8279 15.05647962    15
STARLINK-4328           
1 53071C 22077AE  26187.23798611 -.00016985  00000+0 -11796-2 0  1870
2 53071  97.2861   6.4256 0001897  93.7472 355.8957 15.05656064    12
STARLINK-4344           
1 53072C 22077AF  26187.28520833  .00015182  00000+0  10548-2 0  1875
2 53072  97.2848   6.3586 0001788 101.3373 319.1409 15.05624016    15
STARLINK-4346           
1 53073C 22077AG  26187.19423611 -.00036934  00000+0 -15646-2 0  1876
2 53073  97.6363  17.0521 0006368 159.2143 139.9485 15.23228079    17
STARLINK-4310           
1 53074C 22077AH  26187.22965278  .00232260  00000+0  39108-2 0  1878
2 53074  97.5797   9.1751 0001668  78.9223  69.0453 15.51618054    14
STARLINK-4348           
1 53075C 22077AJ  26187.24354167 -.00014800  00000+0 -10279-2 0  1878
2 53075  97.2870   5.3130 0001346  98.6126 298.4447 15.05652815    10
STARLINK-4347           
1 53076C 22077AK  26187.22687500 -.00021589  00000+0 -14994-2 0  1877
2 53076  97.2852   5.1951 0001497 117.4189 279.3938 15.05656925    15
STARLINK-4322           
1 53078C 22077AM  26187.25673611 -.00005462  00000+0 -37951-3 0  1871
2 53078  97.2868   5.3170 0001843  96.0758 342.4615 15.05630945    16
STARLINK-4327           
1 53079C 22077AN  26187.29215278  .00014705  00000+0  10214-2 0  1877
2 53079  97.2871   6.4138 0001479  85.0977 207.9137 15.05633446    16
STARLINK-4330           
1 53080C 22077AP  26187.25743056  .00001458  00000+0  10127-3 0  1870
2 53080  97.2851   6.3772 0001215  99.2780 275.6554 15.05638043    19
STARLINK-4326           
1 53081C 22077AQ  26187.24840278 -.00005566  00000+0 -38663-3 0  1875
2 53081  97.2855   5.2120 0001766  91.3062 122.1496 15.05638959    13
STARLINK-4321           
1 53082C 22077AR  26187.29631944  .00019263  00000+0  13378-2 0  1871
2 53082  97.2862   5.2229 0001602  95.5651 287.4623 15.05636189    11
STARLINK-4251           
1 53083C 22077AS  26187.30395833  .00024257  00000+0  16846-2 0  1870
2 53083  97.2863   6.3653 0001167  96.1761 200.8865 15.05636514    10
STARLINK-4319           
1 53084C 22077AT  26187.27687500  .00008017  00000+0  55678-3 0  1875
2 53084  97.2851   6.3714 0001122  88.7533  76.5769 15.05641296    15
STARLINK-4324           
1 53085C 22077AU  26187.28868056  .00019223  00000+0  13355-2 0  1870
2 53085  97.2854   6.3421 0001495  88.6857  65.6171 15.05624865    14
STARLINK-4318           
1 53086C 22077AV  26187.23451389 -.00018140  00000+0 -12603-2 0  1877
2 53086  97.2862   5.3146 0001674 104.1932 318.9820 15.05641485    16
STARLINK-4333           
1 53088C 22077AX  26187.31229167  .00035127  00000+0  24400-2 0  1875
2 53088  97.2862   5.2399 0001812  91.1609  63.3917 15.05622370    17
STARLINK-4150           
1 53134C 22083C   26187.24006944  .00696050  00000+0  33133-1 0  1872
2 53134  53.1609   1.4812 0000884  81.9489  18.2953 15.18294682    12
STARLINK-4023           
1 53135C 22083D   26187.22618056  .00740170  00000+0  21830-1 0  1878
2 53135  53.1609   0.0463 0001061  87.3903 307.6405 15.34077305    15
STARLINK-4152           
1 53136C 22083E   26187.24423611  .00664350  00000+0  32508-1 0  1871
2 53136  53.1609   1.4778 0001353  93.8091   1.1230 15.17352243    14
STARLINK-4145           
1 53137C 22083F   26187.26437500  .00435770  00000+0  21094-1 0  1876
2 53137  53.1600   1.3291 0001050  89.0509 185.2275 15.17841908    14
STARLINK-4141           
1 53138C 22083G   26187.25951389  .00023036  00000+0  14457-2 0  1876
2 53138  53.1604 356.8148 0001224 102.6264   6.9957 15.08796668    19
STARLINK-4185           
1 53139C 22083H   26187.24076389  .00000563  00000+0  35293-4 0  1877
2 53139  53.1603   1.7174 0001306  94.8636 325.4866 15.08816232    18
STARLINK-4170           
1 53140C 22083J   26187.30465278  .00689130  00000+0  36731-1 0  1873
2 53140  53.1606   1.3328 0001037  93.6301 344.0029 15.14338348    19
STARLINK-4103           
1 53141C 22083K   26187.23451389  .00440990  00000+0  14763-1 0  1874
2 53141  53.1601   0.1225 0000944  77.0005 146.3518 15.30189821    15
STARLINK-4101           
1 53142C 22083L   26187.22687500  .00473320  00000+0  15997-1 0  1873
2 53142  53.1608   0.2116 0001139  80.6464  13.2757 15.29865231    10
STARLINK-4102           
1 53143C 22083M   26187.24701389  .00007759  00000+0  41865-3 0  1872
2 53143  53.1598   1.0234 0000276 297.8007 241.4006 15.14245890    14
STARLINK-4100           
1 53144C 22083N   26187.27270833  .00608690  00000+0  18586-1 0  1874
2 53144  53.1605 359.9290 0000964  85.8016 319.8004 15.33048137    14
STARLINK-4106           
1 53145C 22083P   26187.25743056  .00778120  00000+0  36677-1 0  1872
2 53145  53.1605   1.4252 0000762  66.2022 337.0896 15.18593279    14
STARLINK-4094           
1 53147C 22083R   26187.29215278  .00691850  00000+0  21442-1 0  1876
2 53147  53.1595 359.7696 0000872  85.3584 218.0639 15.32533658    16
STARLINK-4021           
1 53149C 22083T   26187.22826389  .00604910  00000+0  25259-1 0  1873
2 53149  53.1594 351.4628 0001001  74.3175 190.6349 15.22815880    12
STARLINK-4040           
1 53151C 22083V   26187.25604167  .00253400  00000+0  12908-1 0  1878
2 53151  53.1608 351.3815 0001038  81.8751 155.1342 15.16151860    14
STARLINK-4045           
1 53152C 22083W   26187.25118056  .00375000  00000+0  47486-2 0  1877
2 53152  53.2174 335.4142 0000816  65.3744 123.7746 15.58672601    18
STARLINK-4098           
1 53153C 22083X   26187.29215278  .00043456  00000+0  27270-2 0  1872
2 53153  53.1595 351.4864 0001248  89.1063 225.5149 15.08788015    12
STARLINK-4077           
1 53154C 22083Y   26187.23520833  .00017066  00000+0  10710-2 0  1872
2 53154  53.1598 351.7417 0001412  89.4895 235.6535 15.08797471    19
